NORAD_CAT_ID,OBJECT_NAME,OBJECT_TYPE,EPOCH,MEAN_MOTION,ECCENTRICITY,INCLINATION,RA_OF_ASC_NODE,ARG_OF_PERICENTER,MEAN_ANOMALY,BSTAR,MEAN_MOTION_DOT,MEAN_MOTION_DDOT,TLE_LINE0,TLE_LINE1,TLE_LINE2,SEMIMAJOR_AXIS,PERIOD,APOGEE,PERIGEE,DECAYED
53829.0,STARLINK-4759,PAYLOAD,2023-05-21 11:54:55,15.08843857,9.9e-05,53.2174,217.432,97.9274,262.183,-3.1359e-05,-7.87e-06,0.0,0 STARLINK-4759,1 53829U 22114M   23141.49647770 -.00000787  00000-0 -31359-4 0  9991,2 53829  53.2174 217.4320 0000990  97.9274 262.1830 15.08843857 38367,6917.869,95.437,540.418,539.049,0.0
53829.0,STARLINK-4759,PAYLOAD,2023-05-21 21:27:14,15.08837693,0.0001077,53.2176,215.6498,105.8012,254.3099,-7.8069e-05,-1.53e-05,0.0,0 STARLINK-4759,1 53829U 22114M   23141.89392259 -.00001530  00000-0 -78069-4 0  9990,2 53829  53.2176 215.6498 0001077 105.8012 254.3099 15.08837693 38429,6917.887,95.438,540.497,539.007,0.0
53829.0,STARLINK-4759,PAYLOAD,2023-05-22 11:45:43,15.08837113,0.0001054,53.2172,212.9791,92.1103,268.001,-1.7323e-06,-3.15e-06,0.0,0 STARLINK-4759,1 53829U 22114M   23142.49008370 -.00000315  00000-0 -17323-5 0  9992,2 53829  53.2172 212.9791 0001054  92.1103 268.0010 15.08837113 38517,6917.889,95.438,540.483,539.025,0.0
53829.0,STARLINK-4759,PAYLOAD,2023-05-23 03:39:34,15.08834108,9.3e-05,53.2169,210.007,97.9076,262.2021,3.6963e-07,-2.82e-06,0.0,0 STARLINK-4759,1 53829U 22114M   23143.15248639 -.00000282  00000-0  36963-6 0  9994,2 53829  53.2169 210.0070 0000930  97.9076 262.2021 15.08834108 38076,6917.898,95.438,540.407,539.12,0.0
53829.0,STARLINK-4759,PAYLOAD,2023-05-23 21:08:49,15.08832905,9.81e-05,53.2171,206.7348,98.0027,262.1077,7.4002e-05,8.9e-06,0.0,0 STARLINK-4759,1 53829U 22114M   23143.88112981  .00000890  00000-0  74002-4 0  9992,2 53829  53.2171 206.7348 0000981  98.0027 262.1077 15.08832905 38728,6917.902,95.438,540.446,539.088,0.0
53829.0,STARLINK-4759,PAYLOAD,2023-05-24 08:16:31,15.0883605,9.03e-05,53.2166,204.6528,95.0047,265.1048,0.0001064,1.406e-05,0.0,0 STARLINK-4759,1 53829U 22114M   23144.34480857  .00001406  00000-0  10640-3 0  9995,2 53829  53.2166 204.6528 0000903  95.0047 265.1048 15.08836050 38256,6917.892,95.438,540.382,539.133,0.0
53829.0,STARLINK-4759,PAYLOAD,2023-05-26 00:01:09,15.08842507,0.0001014,53.2164,197.2187,86.2702,273.8406,4.4194e-05,4.16e-06,0.0,0 STARLINK-4759,1 53829U 22114M   23146.00080919  .00000416  00000-0  44194-4 0  9997,2 53829  53.2164 197.2187 0001014  86.2702 273.8406 15.08842507 38502,6917.873,95.437,540.439,539.036,0.0
53829.0,STARLINK-4759,PAYLOAD,2023-05-26 09:33:28,15.08843298,0.0001017,53.2163,195.4344,86.6947,273.4161,4.317e-05,3.99e-06,0.0,0 STARLINK-4759,1 53829U 22114M   23146.39824779  .00000399  00000-0  43170-4 0  9992,2 53829  53.2163 195.4344 0001017  86.6947 273.4161 15.08843298 39103,6917.87,95.437,540.439,539.032,0.0
53829.0,STARLINK-4759,PAYLOAD,2023-05-27 09:24:15,15.08841882,9.75e-05,53.2161,190.9732,93.0206,267.0898,3.9925e-05,3.48e-06,0.0,0 STARLINK-4759,1 53829U 22114M   23147.39184639  .00000348  00000-0  39925-4 0  9994,2 53829  53.2161 190.9732 0000975  93.0206 267.0898 15.08841882 38713,6917.875,95.437,540.414,539.065,0.0
53829.0,STARLINK-4759,PAYLOAD,2023-05-28 06:04:16,15.08835915,9.94e-05,53.216,187.1077,92.1899,267.9207,-2.0448e-05,-6.13e-06,0.0,0 STARLINK-4759,1 53829U 22114M   23148.25297217 -.00000613  00000-0 -20448-4 0  9994,2 53829  53.2160 187.1077 0000994  92.1899 267.9207 15.08835915 39388,6917.893,95.438,540.446,539.07,0.0
53829.0,STARLINK-4759,PAYLOAD,2023-05-28 09:15:03,15.08836873,0.0001018,53.216,186.5133,91.9622,268.1487,-1.2339e-05,-4.84e-06,0.0,0 STARLINK-4759,1 53829U 22114M   23148.38545145 -.00000484  00000-0 -12339-4 0  9990,2 53829  53.2160 186.5133 0001018  91.9622 268.1487 15.08836873 38862,6917.89,95.438,540.459,539.051,0.0
53829.0,STARLINK-4759,PAYLOAD,2023-05-29 09:05:49,15.08844668,9.94e-05,53.2161,182.0526,90.0929,270.0177,7.0862e-05,8.4e-06,0.0,0 STARLINK-4759,1 53829U 22114M   23149.37904273  .00000840  00000-0  70862-4 0  9990,2 53829  53.2161 182.0526 0000994  90.0929 270.0177 15.08844668 39019,6917.866,95.437,540.419,539.043,0.0
53829.0,STARLINK-4759,PAYLOAD,2023-05-29 18:38:08,15.08835424,0.0001094,53.216,180.2648,72.3393,287.7719,7.6257e-07,-2.76e-06,0.0,0 STARLINK-4759,1 53829U 22114M   23149.77649110 -.00000276  00000-0  76257-6 0  9990,2 53829  53.2160 180.2648 0001094  72.3393 287.7719 15.08835424 39616,6917.894,95.438,540.516,539.003,0.0
53829.0,STARLINK-4759,PAYLOAD,2023-05-30 08:56:39,15.08806406,0.0001072,53.2159,177.592,86.8214,273.2901,-0.00016745,-2.949e-05,0.0,0 STARLINK-4759,1 53829U 22114M   23150.37268378 -.00002949  00000-0 -16745-3 0  9994,2 53829  53.2159 177.5920 0001072  86.8214 273.2901 15.08806406 39165,6917.983,95.44,540.59,539.106,0.0
53829.0,STARLINK-4759,PAYLOAD,2023-05-30 18:28:58,15.08821183,9.65e-05,53.216,175.81,92.1975,267.9127,-8.8677e-05,-1.698e-05,0.0,0 STARLINK-4759,1 53829U 22114M   23150.77011753 -.00001698  00000-0 -88677-4 0  9995,2 53829  53.2160 175.8100 0000965  92.1975 267.9127 15.08821183 39228,6917.938,95.439,540.47,539.135,0.0
53829.0,STARLINK-4759,PAYLOAD,2023-05-31 08:47:25,15.08837711,0.0001549,53.2155,173.1192,42.8101,317.3011,2.1445e-05,5.3e-07,0.0,0 STARLINK-4759,1 53829U 22114M   23151.36626819  .00000053  00000-0  21445-4 0  9998,2 53829  53.2155 173.1192 0001549  42.8101 317.3011 15.08837711 39312,6917.887,95.438,540.824,538.681,0.0
53829.0,STARLINK-4759,PAYLOAD,2023-05-31 11:58:11,15.08838097,0.0001134,53.2152,172.5308,52.4869,307.6226,2.1967e-05,6.2e-07,0.0,0 STARLINK-4759,1 53829U 22114M   23151.49874795  .00000062  00000-0  21967-4 0  9999,2 53829  53.2152 172.5308 0001134  52.4869 307.6226 15.08838097 39878,6917.886,95.438,540.536,538.967,0.0
53829.0,STARLINK-4759,PAYLOAD,2023-05-31 18:19:43,15.08845274,8.44e-05,53.2147,171.3449,68.7312,291.377,7.1572e-05,8.52e-06,0.0,0 STARLINK-4759,1 53829U 22114M   23151.76370158  .00000852  00000-0  71572-4 0  9997,2 53829  53.2147 171.3449 0000844  68.7312 291.3770 15.08845274 39378,6917.864,95.437,540.313,539.145,0.0
53829.0,STARLINK-4759,PAYLOAD,2023-06-01 10:13:35,15.0883169,0.0001045,53.2154,168.3722,69.4031,290.7073,0.0004247,6.476e-05,0.0,0 STARLINK-4759,1 53829U 22114M   23152.42611004  .00006476  00000-0  42470-3 0  9991,2 53829  53.2154 168.3722 0001045  69.4031 290.7073 15.08831690 40015,6917.906,95.438,540.494,539.048,0.0
53829.0,STARLINK-4759,PAYLOAD,2023-06-02 08:28:58,15.08857239,0.00012,53.2145,164.21,74.0452,286.0672,0.00019602,2.835e-05,0.0,0 STARLINK-4759,1 53829U 22114M   23153.35345874  .00002835  00000-0  19602-3 0  9999,2 53829  53.2145 164.2100 0001200  74.0452 286.0672 15.08857239 39616,6917.828,95.436,540.523,538.863,0.0
53829.0,STARLINK-4759,PAYLOAD,2023-06-03 09:55:08,15.08848103,0.000118,53.2136,159.4527,72.8711,287.241,9.7496e-06,-1.33e-06,0.0,0 STARLINK-4759,1 53829U 22114M   23154.41329705 -.00000133  00000-0  97496-5 0  9991,2 53829  53.2136 159.4527 0001180  72.8711 287.2410 15.08848103 39776,6917.856,95.437,540.537,538.904,0.0
53829.0,STARLINK-4759,PAYLOAD,2023-06-03 17:52:04,15.08848324,0.0001193,53.2151,157.9658,73.9172,286.1951,1.4966e-05,-5e-07,0.0,0 STARLINK-4759,1 53829U 22114M   23154.74449735 -.00000050  00000-0  14966-4 0  9991,2 53829  53.2151 157.9658 0001193  73.9172 286.1951 15.08848324 40368,6917.855,95.437,540.545,538.895,0.0
53829.0,STARLINK-4759,PAYLOAD,2023-06-04 06:35:09,15.08846287,0.0001234,53.2158,155.5858,82.1217,277.9915,1.3618e-05,-7.1e-07,0.0,0 STARLINK-4759,1 53829U 22114M   23155.27441521 -.00000071  00000-0  13618-4 0  9991,2 53829  53.2158 155.5858 0001234  82.1217 277.9915 15.08846287 40442,6917.861,95.437,540.58,538.873,0.0
53829.0,STARLINK-4759,PAYLOAD,2023-06-05 04:50:33,15.08840183,0.0001201,53.2157,151.4228,80.9214,279.1914,4.7801e-05,4.73e-06,0.0,0 STARLINK-4759,1 53829U 22114M   23156.20177563  .00000473  00000-0  47801-4 0  9993,2 53829  53.2157 151.4228 0001201  80.9214 279.1914 15.08840183 40042,6917.88,95.438,540.576,538.914,0.0
53829.0,STARLINK-4759,PAYLOAD,2023-06-05 06:25:56,15.08840608,0.0001209,53.2156,151.1253,81.0454,279.0675,5.1022e-05,5.24e-06,0.0,0 STARLINK-4759,1 53829U 22114M   23156.26801516  .00000524  00000-0  51022-4 0  9998,2 53829  53.2156 151.1253 0001209  81.0454 279.0675 15.08840608 40597,6917.879,95.438,540.58,538.907,0.0
53829.0,STARLINK-4759,PAYLOAD,2023-06-06 06:16:43,15.0883851,0.0001221,53.2156,146.6647,81.2234,278.8896,3.3705e-05,2.49e-06,0.0,0 STARLINK-4759,1 53829U 22114M   23157.26161761  .00000249  00000-0  33705-4 0  9992,2 53829  53.2156 146.6647 0001221  81.2234 278.8896 15.08838510 40204,6917.885,95.438,540.595,538.905,0.0
53829.0,STARLINK-4759,PAYLOAD,2023-06-07 06:07:31,15.08836707,0.000121,53.2158,142.2056,81.9241,278.1888,2.9763e-05,1.86e-06,0.0,0 STARLINK-4759,1 53829U 22114M   23158.25522083  .00000186  00000-0  29763-4 0  9999,2 53829  53.2158 142.2056 0001210  81.9241 278.1888 15.08836707 40890,6917.89,95.438,540.593,538.918,0.0
53829.0,STARLINK-4759,PAYLOAD,2023-06-07 15:39:49,15.08837357,0.000122,53.2157,140.4215,82.5329,277.5802,4.8718e-05,4.88e-06,0.0,0 STARLINK-4759,1 53829U 22114M   23158.65266050  .00000488  00000-0  48718-4 0  9998,2 53829  53.2157 140.4215 0001220  82.5329 277.5802 15.08837357 40410,6917.888,95.438,540.597,538.909,0.0
53829.0,STARLINK-4759,PAYLOAD,2023-06-08 07:33:41,15.08839972,0.0001235,53.2159,137.4481,83.646,276.4673,7.1635e-05,8.52e-06,0.0,0 STARLINK-4759,1 53829U 22114M   23159.31505963  .00000852  00000-0  71635-4 0  9990,2 53829  53.2159 137.4481 0001235  83.6460 276.4673 15.08839972 41057,6917.88,95.438,540.6,538.891,0.0
53829.0,STARLINK-4759,PAYLOAD,2023-06-09 07:24:28,15.08842563,0.0001292,53.2164,132.9863,90.6045,269.5095,8.5726e-05,1.077e-05,0.0,0 STARLINK-4759,1 53829U 22114M   23160.30865851  .00001077  00000-0  85726-4 0  9992,2 53829  53.2164 132.9863 0001292  90.6045 269.5095 15.08842563 40664,6917.873,95.437,540.631,538.844,0.0
